HAWK-6B                 
1 55324U 23011A   26159.98587508  .00003756  00000+0  16519-3 0  9994
2 55324  40.4989  39.9045 0003807 316.2141  43.8366 15.22854927186595
HAWK-6C                 
1 55326U 23011C   26159.98521563  .00004005  00000+0  17554-3 0  9993
2 55326  40.4980  36.7470 0004382 306.7645  53.2761 15.22863697186607
HAWK-6A                 
1 55327U 23011D   26159.98526055  .00003875  00000+0  17018-3 0  9994
2 55327  40.4991  38.3707 0004034 304.4298  55.6129 15.22856626186602
HAWK-7A                 
1 56191U 23054P   26160.18288417  .00001500  00000+0  58826-4 0  9998
2 56191  97.2719  47.7255 0004817  79.4079 280.7703 15.27271822175800
HAWK-7B                 
1 56193U 23054R   26160.18279964  .00004855  00000+0  18433-3 0  9992
2 56193  97.2739  45.9844 0004011  84.5267 275.6430 15.27279046175806
HAWK-7C                 
1 56200U 23054Y   26160.18268873  .00004803  00000+0  18241-3 0  9998
2 56200  97.2716  46.7555 0004102  76.7326 283.4371 15.27275910175805
